NORAD_CAT_ID,OBJECT_NAME,OBJECT_TYPE,EPOCH,MEAN_MOTION,ECCENTRICITY,INCLINATION,RA_OF_ASC_NODE,ARG_OF_PERICENTER,MEAN_ANOMALY,BSTAR,MEAN_MOTION_DOT,MEAN_MOTION_DDOT,TLE_LINE0,TLE_LINE1,TLE_LINE2,SEMIMAJOR_AXIS,PERIOD,APOGEE,PERIGEE,DECAYED
54791.0,STARLINK-5425,PAYLOAD,2023-06-04 13:03:58,15.08838397,9.08e-05,53.2179,239.2946,99.0693,261.0402,3.4353e-05,2.59e-06,0.0,0 STARLINK-5425,1 54791U 22175AK  23155.54442836  .00000259  00000-0  34353-4 0  9993,2 54791  53.2179 239.2946 0000908  99.0693 261.0402 15.08838397 27784,6917.885,95.438,540.378,539.122,0.0
54791.0,STARLINK-5425,PAYLOAD,2023-06-04 14:39:21,15.08840089,9.18e-05,53.2178,238.9973,99.6689,260.4407,4.8182e-05,4.79e-06,0.0,0 STARLINK-5425,1 54791U 22175AK  23155.61066683  .00000479  00000-0  48182-4 0  9992,2 54791  53.2178 238.9973 0000918  99.6689 260.4407 15.08840089 27791,6917.88,95.438,540.38,539.11,0.0
54791.0,STARLINK-5425,PAYLOAD,2023-06-05 09:43:59,15.08839036,8.88e-05,53.217,235.4294,84.4879,275.6215,5.6038e-05,6.04e-06,0.0,0 STARLINK-5425,1 54791U 22175AK  23156.40554696  .00000604  00000-0  56038-4 0  9995,2 54791  53.2170 235.4294 0000888  84.4879 275.6215 15.08839036 25759,6917.883,95.438,540.363,539.134,0.0
54791.0,STARLINK-5425,PAYLOAD,2023-06-05 12:54:45,15.08842374,8.78e-05,53.2171,234.8346,83.6037,276.5055,5.2897e-05,5.54e-06,0.0,0 STARLINK-5425,1 54791U 22175AK  23156.53802500  .00000554  00000-0  52897-4 0  9992,2 54791  53.2171 234.8346 0000878  83.6037 276.5055 15.08842374 27930,6917.873,95.437,540.346,539.131,0.0
54791.0,STARLINK-5425,PAYLOAD,2023-06-05 14:30:08,15.08844447,8.76e-05,53.2171,234.5374,83.2956,276.8136,6.875e-05,8.07e-06,0.0,0 STARLINK-5425,1 54791U 22175AK  23156.60426298  .00000807  00000-0  68750-4 0  9992,2 54791  53.2171 234.5374 0000876  83.2956 276.8136 15.08844447 27949,6917.867,95.437,540.338,539.126,0.0
54791.0,STARLINK-5425,PAYLOAD,2023-06-06 11:10:09,15.08838425,9.09e-05,53.2166,230.6721,79.0704,281.039,-2.1547e-05,-6.31e-06,0.0,0 STARLINK-5425,1 54791U 22175AK  23157.46538998 -.00000631  00000-0 -21547-4 0  9998,2 54791  53.2166 230.6721 0000909  79.0704 281.0390 15.08838425 28071,6917.885,95.438,540.379,539.121,0.0
54791.0,STARLINK-5425,PAYLOAD,2023-06-06 12:45:32,15.08836908,9.4e-05,53.2169,230.3747,79.3647,280.7451,3.7947e-05,3.16e-06,0.0,0 STARLINK-5425,1 54791U 22175AK  23157.53162870  .00000316  00000-0  37947-4 0  9997,2 54791  53.2169 230.3747 0000940  79.3647 280.7451 15.08836908 25922,6917.89,95.438,540.405,539.105,0.0
54791.0,STARLINK-5425,PAYLOAD,2023-06-07 07:50:10,15.08838578,9.46e-05,53.2167,226.8066,77.647,282.4628,-3.0078e-05,-7.66e-06,0.0,0 STARLINK-5425,1 54791U 22175AK  23158.32650948 -.00000766  00000-0 -30078-4 0  9992,2 54791  53.2167 226.8066 0000946  77.6470 282.4628 15.08838578 28209,6917.885,95.438,540.404,539.095,0.0
54791.0,STARLINK-5425,PAYLOAD,2023-06-08 09:16:20,15.08835657,9.37e-05,53.2165,222.0484,77.6902,282.4195,1.7933e-05,-2e-08,0.0,0 STARLINK-5425,1 54791U 22175AK  23159.38634984 -.00000002  00000-0  17933-4 0  9998,2 54791  53.2165 222.0484 0000937  77.6902 282.4195 15.08835657 26201,6917.894,95.438,540.407,539.11,0.0
54791.0,STARLINK-5425,PAYLOAD,2023-06-08 10:51:43,15.08837823,9.32e-05,53.2167,221.751,79.5361,280.5736,5.3292e-06,-2.03e-06,0.0,0 STARLINK-5425,1 54791U 22175AK  23159.45258906 -.00000203  00000-0  53292-5 0  9994,2 54791  53.2167 221.7510 0000932  79.5361 280.5736 15.08837823 28371,6917.887,95.438,540.397,539.107,0.0
54791.0,STARLINK-5425,PAYLOAD,2023-06-09 10:42:31,15.08832388,9.14e-05,53.2167,217.2913,90.2238,269.8859,-4.2869e-06,-3.56e-06,0.0,0 STARLINK-5425,1 54791U 22175AK  23160.44619491 -.00000356  00000-0 -42869-5 0  9993,2 54791  53.2167 217.2913 0000914  90.2238 269.8859 15.08832388 26365,6917.904,95.438,540.401,539.136,0.0
54791.0,STARLINK-5425,PAYLOAD,2023-06-10 10:33:18,15.08838768,8.75e-05,53.2165,212.8302,85.1709,274.9383,3.1075e-05,2.07e-06,0.0,0 STARLINK-5425,1 54791U 22175AK  23161.43979213  .00000207  00000-0  31075-4 0  9993,2 54791  53.2165 212.8302 0000875  85.1709 274.9383 15.08838768 26512,6917.884,95.438,540.354,539.144,0.0
54791.0,STARLINK-5425,PAYLOAD,2023-06-10 20:05:37,15.08834702,8.61e-05,53.2164,211.0464,84.2383,275.8708,1.926e-05,1.9e-07,0.0,0 STARLINK-5425,1 54791U 22175AK  23161.83723578  .00000019  00000-0  19260-4 0  9991,2 54791  53.2164 211.0464 0000861  84.2383 275.8708 15.08834702 28735,6917.897,95.438,540.357,539.166,0.0
54791.0,STARLINK-5425,PAYLOAD,2023-06-11 02:27:09,15.08832221,8.92e-05,53.2164,209.8568,84.2001,275.9092,1.3453e-05,-7.4e-07,0.0,0 STARLINK-5425,1 54791U 22175AK  23162.10219851 -.00000074  00000-0  13453-4 0  9996,2 54791  53.2164 209.8568 0000892  84.2001 275.9092 15.08832221 26612,6917.904,95.438,540.386,539.152,0.0
54791.0,STARLINK-5425,PAYLOAD,2023-06-11 10:24:05,15.08833189,8.99e-05,53.2164,208.37,83.8069,276.3025,1.8615e-05,9e-08,0.0,0 STARLINK-5425,1 54791U 22175AK  23162.43339903  .00000009  00000-0  18615-4 0  9995,2 54791  53.2164 208.3700 0000899  83.8069 276.3025 15.08833189 28820,6917.901,95.438,540.388,539.144,0.0
54791.0,STARLINK-5425,PAYLOAD,2023-06-11 19:56:24,15.08837045,8.92e-05,53.2163,206.5859,84.9335,275.1759,3.1891e-05,2.2e-06,0.0,0 STARLINK-5425,1 54791U 22175AK  23162.83083704  .00000220  00000-0  31891-4 0  9990,2 54791  53.2163 206.5859 0000892  84.9335 275.1759 15.08837045 28887,6917.889,95.438,540.371,539.137,0.0
54791.0,STARLINK-5425,PAYLOAD,2023-06-12 11:50:15,15.08842925,8.9e-05,53.2162,203.6121,86.6584,273.451,3.6773e-05,2.98e-06,0.0,0 STARLINK-5425,1 54791U 22175AK  23163.49323289  .00000298  00000-0  36773-4 0  9997,2 54791  53.2162 203.6121 0000890  86.6584 273.4510 15.08842925 28989,6917.871,95.437,540.352,539.121,0.0
54791.0,STARLINK-5425,PAYLOAD,2023-06-12 19:47:11,15.08836736,8.89e-05,53.2159,202.1247,78.472,281.6372,-7.9989e-06,-4.15e-06,0.0,0 STARLINK-5425,1 54791U 22175AK  23163.82443855 -.00000415  00000-0 -79989-5 0  9996,2 54791  53.2159 202.1247 0000889  78.4720 281.6372 15.08836736 29034,6917.89,95.438,540.37,539.14,0.0
54791.0,STARLINK-5425,PAYLOAD,2023-06-13 02:08:44,15.08831629,8.84e-05,53.2158,200.935,78.6853,281.4239,1.2925e-05,-8.2e-07,0.0,0 STARLINK-5425,1 54791U 22175AK  23164.08940158 -.00000082  00000-0  12925-4 0  9998,2 54791  53.2158 200.9350 0000884  78.6853 281.4239 15.08831629 26918,6917.906,95.438,540.383,539.159,0.0
54791.0,STARLINK-5425,PAYLOAD,2023-06-13 19:37:58,15.08836315,9.5e-05,53.2162,197.6641,76.9345,283.1753,-2.8711e-05,-7.45e-06,0.0,0 STARLINK-5425,1 54791U 22175AK  23164.81804232 -.00000745  00000-0 -28711-4 0  9998,2 54791  53.2162 197.6641 0000950  76.9345 283.1753 15.08836315 29188,6917.892,95.438,540.414,539.099,0.0
54791.0,STARLINK-5425,PAYLOAD,2023-06-14 01:59:31,15.08840837,9.97e-05,53.2164,196.4741,76.6186,283.4918,1.8332e-06,-2.59e-06,0.0,0 STARLINK-5425,1 54791U 22175AK  23165.08299904 -.00000259  00000-0  18332-5 0  9990,2 54791  53.2164 196.4741 0000997  76.6186 283.4918 15.08840837 27064,6917.878,95.438,540.433,539.053,0.0
54791.0,STARLINK-5425,PAYLOAD,2023-06-14 11:31:49,15.0884286,0.0001029,53.2164,194.6903,74.8863,285.2243,2.104e-05,4.7e-07,0.0,0 STARLINK-5425,1 54791U 22175AK  23165.48043662  .00000047  00000-0  21040-4 0  9995,2 54791  53.2164 194.6903 0001029  74.8863 285.2243 15.08842860 29288,6917.872,95.437,540.448,539.025,0.0
54791.0,STARLINK-5425,PAYLOAD,2023-06-14 19:28:45,15.08839847,0.0001024,53.2166,193.2035,74.122,285.9885,2.2745e-05,7.4e-07,0.0,0 STARLINK-5425,1 54791U 22175AK  23165.81163793  .00000074  00000-0  22745-4 0  9993,2 54791  53.2166 193.2035 0001024  74.1220 285.9885 15.08839847 29332,6917.881,95.438,540.454,539.037,0.0
54791.0,STARLINK-5425,PAYLOAD,2023-06-15 08:11:50,15.08837758,9.82e-05,53.2164,190.8246,74.1946,285.9154,4.5694e-05,4.4e-06,0.0,0 STARLINK-5425,1 54791U 22175AK  23166.34155873  .00000440  00000-0  45694-4 0  9997,2 54791  53.2164 190.8246 0000982  74.1946 285.9154 15.08837758 27251,6917.887,95.438,540.432,539.073,0.0
54791.0,STARLINK-5425,PAYLOAD,2023-06-16 08:02:37,15.08843302,9.91e-05,53.2161,186.3638,76.081,284.0292,1.194e-05,-9.8e-07,0.0,0 STARLINK-5425,1 54791U 22175AK  23167.33515551 -.00000098  00000-0  11940-4 0  9997,2 54791  53.2161 186.3638 0000991  76.0810 284.0292 15.08843302 29565,6917.87,95.437,540.421,539.05,0.0
54791.0,STARLINK-5425,PAYLOAD,2023-06-17 01:31:52,15.08837262,0.0001001,53.2161,183.0929,75.4196,284.6907,-1.333e-05,-5e-06,0.0,0 STARLINK-5425,1 54791U 22175AK  23168.06379924 -.00000500  00000-0 -13330-4 0  9994,2 54791  53.2161 183.0929 0001001  75.4196 284.6907 15.08837262 27515,6917.889,95.438,540.446,539.061,0.0
54791.0,STARLINK-5425,PAYLOAD,2023-06-17 07:53:24,15.08838316,0.0001009,53.2161,181.9034,75.4159,284.6945,-4.8754e-06,-3.65e-06,0.0,0 STARLINK-5425,1 54791U 22175AK  23168.32875836 -.00000365  00000-0 -48754-5 0  9994,2 54791  53.2161 181.9034 0001009  75.4159 284.6945 15.08838316 29713,6917.886,95.438,540.449,539.053,0.0
54791.0,STARLINK-5425,PAYLOAD,2023-06-17 17:25:43,15.08834322,9.85e-05,53.216,180.1193,72.0233,288.0866,-3.5638e-05,-8.55e-06,0.0,0 STARLINK-5425,1 54791U 22175AK  23168.72620242 -.00000855  00000-0 -35638-4 0  9997,2 54791  53.2160 180.1193 0000985  72.0233 288.0866 15.08834322 29776,6917.898,95.438,540.444,539.081,0.0
54791.0,STARLINK-5425,PAYLOAD,2023-06-18 01:22:39,15.08831792,0.0001021,53.2162,178.6327,73.7439,286.3666,-6.7356e-05,-1.359e-05,0.0,0 STARLINK-5425,1 54791U 22175AK  23169.05740646 -.00001359  00000-0 -67356-4 0  9997,2 54791  53.2162 178.6327 0001021  73.7439 286.3666 15.08831792 27660,6917.905,95.438,540.477,539.064,0.0
54791.0,STARLINK-5425,PAYLOAD,2023-06-18 04:33:26,15.08832322,0.0001029,53.2164,178.0381,74.1304,285.9802,-6.035e-05,-1.248e-05,0.0,0 STARLINK-5425,1 54791U 22175AK  23169.18988647 -.00001248  00000-0 -60350-4 0  9990,2 54791  53.2164 178.0381 0001029  74.1304 285.9802 15.08832322 29849,6917.904,95.438,540.481,539.057,0.0
